{"type": "FeatureCollection", "features": [ {"type": "Feature", "properties": {"norad_id": 41774, "name": "SKYSAT-C3", "group": "resource", "lat": -37.935377991813056, "lon": -169.76112027134704, "alt_km": 440.89356312303335, "timestamp": "2025-12-07T16:44:03.568313+00:00", "meta": {"OBJECT_NAME": "SKYSAT-C3", "OBJECT_ID": "2016-058E", "EPOCH": "2025-12-06T21:07:43.510944", "MEAN_MOTION": 15.44097169, "ECCENTRICITY": 0.00015045, "INCLINATION": 96.93, "RA_OF_ASC_NODE": 14.9005, "ARG_OF_PERICENTER": 103.8796, "MEAN_ANOMALY": 256.2621, "EPHEMERIS_TYPE": 0, "CLASSIFICATION_TYPE": "U", "NORAD_CAT_ID": 41774, "ELEMENT_SET_NO": 999, "REV_AT_EPOCH": 51635, "BSTAR": 0.00057628913, "MEAN_MOTION_DOT": 0.00026324, "MEAN_MOTION_DDOT": 0}, "tle": {"line1": "1 41774U 16058E   25340.88036471  .00026324  00000+0  57629-3 0  9992", "line2": "2 41774  96.9300  14.9005 0001504 103.8796 256.2621 15.44097169516355"}}, "geometry": {"type": "Point", "coordinates": [-169.76112027134704, -37.935377991813056]}}, {"type": "Feature", "properties": {"norad_id": 41785, "name": "ALSAT 1B", "group": "resource", "lat": -54.57027398275942, "lon": 4.7863183224187384, "alt_km": 668.8759368263345, "timestamp": "2025-12-07T16:44:03.568328+00:00", "meta": {"OBJECT_NAME": "ALSAT 1B", "OBJECT_ID": "2016-059C", "EPOCH": "2025-12-06T23:02:26.903904", "MEAN_MOTION": 14.72066265, "ECCENTRICITY": 0.00105469, "INCLINATION": 97.7815, "RA_OF_ASC_NODE": 352.9992, "ARG_OF_PERICENTER": 120.1679, "MEAN_ANOMALY": 240.0576, "EPHEMERIS_TYPE": 0, "CLASSIFICATION_TYPE": "U", "NORAD_CAT_ID": 41785, "ELEMENT_SET_NO": 999, "REV_AT_EPOCH": 49229, "BSTAR": 0.00014344384, "MEAN_MOTION_DOT": 8.55e-06, "MEAN_MOTION_DDOT": 0}, "tle": {"line1": "1 41785U 16059C   25340.96003361  .00000855  00000+0  14344-3 0  9994", "line2": "2 41785  97.7815 352.9992 0010546 120.1679 240.0576 14.72066265492294"}}, "geometry": {"type": "Point", "coordinates": [4.7863183224187384, -54.57027398275942]}}, {"type": "Feature", "properties": {"norad_id": 41787, "name": "PATHFINDER 1", "group": "resource", "lat": 68.8756393080681, "lon": -174.4757342039219, "alt_km": 642.3793685996652, "timestamp": "2025-12-07T16:44:03.568338+00:00", "meta": {"OBJECT_NAME": "PATHFINDER 1", "OBJECT_ID": "2016-059E", "EPOCH": "2025-12-06T22:14:06.987264", "MEAN_MOTION": 14.67305309, "ECCENTRICITY": 0.00300323, "INCLINATION": 97.8138, "RA_OF_ASC_NODE": 343.9699, "ARG_OF_PERICENTER": 98.8647, "MEAN_ANOMALY": 261.5961, "EPHEMERIS_TYPE": 0, "CLASSIFICATION_TYPE": "U", "NORAD_CAT_ID": 41787, "ELEMENT_SET_NO": 999, "REV_AT_EPOCH": 49151, "BSTAR": 0.00025902707, "MEAN_MOTION_DOT": 1.425e-05, "MEAN_MOTION_DDOT": 0}, "tle": {"line1": "1 41787U 16059E   25340.92646976  .00001425  00000+0  25903-3 0  9994", "line2": "2 41787  97.8138 343.9699 0030032  98.8647 261.5961 14.67305309491516"}}, "geometry": {"type": "Point", "coordinates": [-174.4757342039219, 68.8756393080681]}}, {"type": "Feature", "properties": {"norad_id": 41790, "name": "SCATSAT 1", "group": "resource", "lat": -70.495200667378, "lon": -165.550210358526, "alt_km": 652.1603023587822, "timestamp": "2025-12-07T16:44:03.568348+00:00", "meta": {"OBJECT_NAME": "SCATSAT 1", "OBJECT_ID": "2016-059H", "EPOCH": "2025-12-06T21:44:23.885664", "MEAN_MOTION": 14.78906272, "ECCENTRICITY": 0.00560114, "INCLINATION": 98.1469, "RA_OF_ASC_NODE": 37.5036, "ARG_OF_PERICENTER": 146.4506, "MEAN_ANOMALY": 214.0272, "EPHEMERIS_TYPE": 0, "CLASSIFICATION_TYPE": "U", "NORAD_CAT_ID": 41790, "ELEMENT_SET_NO": 999, "REV_AT_EPOCH": 7316, "BSTAR": 0.00042242668, "MEAN_MOTION_DOT": 3.141e-05, "MEAN_MOTION_DDOT": 0}, "tle": {"line1": "1 41790U 16059H   25340.90583201  .00003141  00000+0  42243-3 0  9990", "line2": "2 41790  98.1469  37.5036 0056011 146.4506 214.0272 14.78906272 73164"}}, "geometry": {"type": "Point", "coordinates": [-165.550210358526, -70.495200667378]}}, {"type": "Feature", "properties": {"norad_id": 41875, "name": "GOKTURK 1A", "group": "resource", "lat": -81.77680305445635, "lon": -28.116494940864122, "alt_km": 692.459041428926, "timestamp": "2025-12-07T16:44:03.568358+00:00", "meta": {"OBJECT_NAME": "GOKTURK 1A", "OBJECT_ID": "2016-073A", "EPOCH": "2025-12-06T23:05:30.114240", "MEAN_MOTION": 14.62769123, "ECCENTRICITY": 0.00012421, "INCLINATION": 98.1437, "RA_OF_ASC_NODE": 233.4045, "ARG_OF_PERICENTER": 82.7596, "MEAN_ANOMALY": 277.3747, "EPHEMERIS_TYPE": 0, "CLASSIFICATION_TYPE": "U", "NORAD_CAT_ID": 41875, "ELEMENT_SET_NO": 999, "REV_AT_EPOCH": 48072, "BSTAR": 0.00020308911, "MEAN_MOTION_DOT": 9.89e-06, "MEAN_MOTION_DDOT": 0}, "tle": {"line1": "1 41875U 16073A   25340.96215410  .00000989  00000+0  20309-3 0  9996", "line2": "2 41875  98.1437 233.4045 0001242  82.7596 277.3747 14.62769123480725"}}, "geometry": {"type": "Point", "coordinates": [-28.116494940864122, -81.77680305445635]}}, {"type": "Feature", "properties": {"norad_id": 41877, "name": "RESOURCESAT-2A", "group": "resource", "lat": -15.920960067557182, "lon": 54.10814869504004, "alt_km": 824.3378859715003, "timestamp": "2025-12-07T16:44:03.568369+00:00", "meta": {"OBJECT_NAME": "RESOURCESAT-2A", "OBJECT_ID": "2016-074A", "EPOCH": "2025-12-06T22:13:43.675680", "MEAN_MOTION": 14.215957, "ECCENTRICITY": 0.00011222, "INCLINATION": 98.7765, "RA_OF_ASC_NODE": 50.8159, "ARG_OF_PERICENTER": 282.5754, "MEAN_ANOMALY": 77.5297, "EPHEMERIS_TYPE": 0, "CLASSIFICATION_TYPE": "U", "NORAD_CAT_ID": 41877, "ELEMENT_SET_NO": 999, "REV_AT_EPOCH": 46698, "BSTAR": 0.00016976115, "MEAN_MOTION_DOT": 3.28e-06, "MEAN_MOTION_DDOT": 0}, "tle": {"line1": "1 41877U 16074A   25340.92619995  .00000328  00000+0  16976-3 0  9993", "line2": "2 41877  98.7765  50.8159 0001122 282.5754  77.5297 14.21595700466982"}}, "geometry": {"type": "Point", "coordinates": [54.10814869504004, -15.920960067557182]}}, {"type": "Feature", "properties": {"norad_id": 41948, "name": "CARTOSAT-2D", "group": "resource", "lat": 20.964121104849173, "lon": 36.40185238898184, "alt_km": 510.95021739421463, "timestamp": "2025-12-07T16:44:03.568379+00:00", "meta": {"OBJECT_NAME": "CARTOSAT-2D", "OBJECT_ID": "2017-008A", "EPOCH": "2025-12-06T21:40:18.069888", "MEAN_MOTION": 15.19170362, "ECCENTRICITY": 0.00041488, "INCLINATION": 97.4395, "RA_OF_ASC_NODE": 38.4894, "ARG_OF_PERICENTER": 181.527, "MEAN_ANOMALY": 178.5952, "EPHEMERIS_TYPE": 0, "CLASSIFICATION_TYPE": "U", "NORAD_CAT_ID": 41948, "ELEMENT_SET_NO": 999, "REV_AT_EPOCH": 48838, "BSTAR": 0.00040415455, "MEAN_MOTION_DOT": 8.436e-05, "MEAN_MOTION_DDOT": 0}, "tle": {"line1": "1 41948U 17008A   25340.90298692  .00008436  00000+0  40415-3 0  9998", "line2": "2 41948  97.4395  38.4894 0004148 181.5270 178.5952 15.19170362488385"}}, "geometry": {"type": "Point", "coordinates": [36.40185238898184, 20.964121104849173]}}, {"type": "Feature", "properties": {"norad_id": 42063, "name": "SENTINEL-2B", "group": "resource", "lat": 33.89688931041339, "lon": -119.96914455311277, "alt_km": 786.3007571794296, "timestamp": "2025-12-07T16:44:03.568389+00:00", "meta": {"OBJECT_NAME": "SENTINEL-2B", "OBJECT_ID": "2017-013A", "EPOCH": "2025-12-06T21:35:40.951392", "MEAN_MOTION": 14.30812453, "ECCENTRICITY": 0.00011329, "INCLINATION": 98.5725, "RA_OF_ASC_NODE": 53.4277, "ARG_OF_PERICENTER": 97.8882, "MEAN_ANOMALY": 262.2429, "EPHEMERIS_TYPE": 0, "CLASSIFICATION_TYPE": "U", "NORAD_CAT_ID": 42063, "ELEMENT_SET_NO": 999, "REV_AT_EPOCH": 45714, "BSTAR": 0.00013181744, "MEAN_MOTION_DOT": 3.02e-06, "MEAN_MOTION_DDOT": 0}, "tle": {"line1": "1 42063U 17013A   25340.89977953  .00000302  00000+0  13182-3 0  9990", "line2": "2 42063  98.5725  53.4277 0001132  97.8882 262.2429 14.30812453457149"}}, "geometry": {"type": "Point", "coordinates": [-119.96914455311277, 33.89688931041339]}}, {"type": "Feature", "properties": {"norad_id": 42767, "name": "CARTOSAT-2E", "group": "resource", "lat": -67.30328669047717, "lon": 57.5977729650481, "alt_km": 513.9398267610632, "timestamp": "2025-12-07T16:44:03.568399+00:00", "meta": {"OBJECT_NAME": "CARTOSAT-2E", "OBJECT_ID": "2017-036C", "EPOCH": "2025-12-06T22:03:59.171904", "MEAN_MOTION": 15.19233387, "ECCENTRICITY": 0.00023701, "INCLINATION": 97.4561, "RA_OF_ASC_NODE": 38.582, "ARG_OF_PERICENTER": 266.9012, "MEAN_ANOMALY": 93.1951, "EPHEMERIS_TYPE": 0, "CLASSIFICATION_TYPE": "U", "NORAD_CAT_ID": 42767, "ELEMENT_SET_NO": 999, "REV_AT_EPOCH": 46895, "BSTAR": 0.00040988817, "MEAN_MOTION_DOT": 8.571e-05, "MEAN_MOTION_DDOT": 0}, "tle": {"line1": "1 42767U 17036C   25340.91943486  .00008571  00000+0  40989-3 0  9994", "line2": "2 42767  97.4561  38.5820 0002370 266.9012  93.1951 15.19233387468956"}}, "geometry": {"type": "Point", "coordinates": [57.5977729650481, -67.30328669047717]}}, {"type": "Feature", "properties": {"norad_id": 42920, "name": "FORMOSAT-5", "group": "resource", "lat": 37.6624138624027, "lon": -117.45741330321451, "alt_km": 726.7297799736461, "timestamp": "2025-12-07T16:44:03.568414+00:00", "meta": {"OBJECT_NAME": "FORMOSAT-5", "OBJECT_ID": "2017-049A", "EPOCH": "2025-12-06T21:52:39.180576", "MEAN_MOTION": 14.50999938, "ECCENTRICITY": 0.00101275, "INCLINATION": 98.2458, "RA_OF_ASC_NODE": 55.3461, "ARG_OF_PERICENTER": 315.1922, "MEAN_ANOMALY": 44.8454, "EPHEMERIS_TYPE": 0, "CLASSIFICATION_TYPE": "U", "NORAD_CAT_ID": 42920, "ELEMENT_SET_NO": 999, "REV_AT_EPOCH": 43879, "BSTAR": 0.00013384104, "MEAN_MOTION_DOT": 4.86e-06, "MEAN_MOTION_DDOT": 0}, "tle": {"line1": "1 42920U 17049A   25340.91156459  .00000486  00000+0  13384-3 0  9991", "line2": "2 42920  98.2458  55.3461 0010127 315.1922  44.8454 14.50999938438790"}}, "geometry": {"type": "Point", "coordinates": [-117.45741330321451, 37.6624138624027]}}]}